FLOCK 4G-5              
1 62663U 25009BG  26068.45638436  .00011278  00000+0  40688-3 0  9997
2 62663  97.4058 151.2478 0002094 314.5072  45.5996 15.28679529 63699
STARLINK-35876          
1 67180U 25303T   26068.15033222  .00024824  00000+0  90905-3 0  9990
2 67180  43.0004 313.6750 0001780 280.7112  79.3539 15.27561943 12650
